
    {
        "ARG_OF_PERICENTER": 13.7798,
        "BSTAR": 0.00032760179,
        "CLASSIFICATION_TYPE": "U",
        "ECCENTRICITY": 0.0005576,
        "ELEMENT_SET_NO": 999,
        "EPHEMERIS_TYPE": 0,
        "EPOCH": "2026-05-03T11:49:22.824192",
        "INCLINATION": 51.6269,
        "MEAN_ANOMALY": 346.3346,
        "MEAN_MOTION": 15.59553817,
        "MEAN_MOTION_DDOT": 0,
        "MEAN_MOTION_DOT": 0.00026134,
        "NORAD_CAT_ID": 66906,
        "OBJECT_ID": "1998-067XS",
        "OBJECT_NAME": "DUPLEX",
        "RA_OF_ASC_NODE": 154.6093,
        "REV_AT_EPOCH": 2367
    },
    {
        "ARG_OF_PERICENTER": 35.5197,
        "BSTAR": 0.0015467,
        "CLASSIFICATION_TYPE": "U",
        "ECCENTRICITY": 0.0006778,
        "ELEMENT_SET_NO": 999,
        "EPHEMERIS_TYPE": 0,
        "EPOCH": "2026-05-04T06:23:20.260608",
        "INCLINATION": 51.6103,
        "MEAN_ANOMALY": 324.6267,
        "MEAN_MOTION": 16.09193601,
        "MEAN_MOTION_DDOT": 0.0012973,
        "MEAN_MOTION_DOT": 0.0140015,
        "NORAD_CAT_ID": 66907,
        "OBJECT_ID": "1998-067XT",
        "OBJECT_NAME": "ISS OBJECT XT",
        "RA_OF_ASC_NODE": 136.3394,
        "REV_AT_EPOCH": 2398
    },
    {
        "ARG_OF_PERICENTER": 36.3523,
        "BSTAR": 0.0015352,
        "CLASSIFICATION_TYPE": "U",
        "ECCENTRICITY": 0.0006728,
        "ELEMENT_SET_NO": 999,
        "EPHEMERIS_TYPE": 0,
        "EPOCH": "2026-05-04T06:00:33.223392",
        "INCLINATION": 51.6108,
        "MEAN_ANOMALY": 323.7946,
        "MEAN_MOTION": 16.09807506,
        "MEAN_MOTION_DDOT": 0.0014194,
        "MEAN_MOTION_DOT": 0.01443506,
        "NORAD_CAT_ID": 66908,
        "OBJECT_ID": "1998-067XU",
        "OBJECT_NAME": "ISS OBJECT XU",
        "RA_OF_ASC_NODE": 136.2247,
        "REV_AT_EPOCH": 2398
    },
    {
        "ARG_OF_PERICENTER": 33.7999,
        "BSTAR": 0.0013349,
        "CLASSIFICATION_TYPE": "U",
        "ECCENTRICITY": 0.0009094,
        "ELEMENT_SET_NO": 999,
        "EPHEMERIS_TYPE": 0,
        "EPOCH": "2026-05-04T05:51:47.506176",
        "INCLINATION": 51.6124,
        "MEAN_ANOMALY": 326.3588,
        "MEAN_MOTION": 15.96741824,
        "MEAN_MOTION_DDOT": 0.00015492,
        "MEAN_MOTION_DOT": 0.00584221,
        "NORAD_CAT_ID": 66910,
        "OBJECT_ID": "1998-067XW",
        "OBJECT_NAME": "ISS OBJECT XW",
        "RA_OF_ASC_NODE": 137.7137,
        "REV_AT_EPOCH": 2396
    },
    {
        "ARG_OF_PERICENTER": 28.986,
        "BSTAR": 0.00087671,
        "CLASSIFICATION_TYPE": "U",
        "ECCENTRICITY": 0.0008107,
        "ELEMENT_SET_NO": 999,
        "EPHEMERIS_TYPE": 0,
        "EPOCH": "2026-05-04T06:48:07.612416",
        "INCLINATION": 51.622,
        "MEAN_ANOMALY": 331.1589,
        "MEAN_MOTION": 15.76637903,
        "MEAN_MOTION_DDOT": 0,
        "MEAN_MOTION_DOT": 0.00145225,
        "NORAD_CAT_ID": 66912,
        "OBJECT_ID": "1998-067XY",
        "OBJECT_NAME": "ISS OBJECT XY",
        "RA_OF_ASC_NODE": 143.3392,
        "REV_AT_EPOCH": 2388
    },
    {
        "ARG_OF_PERICENTER": 35.8918,
        "BSTAR": 0.00055994,
        "CLASSIFICATION_TYPE": "U",
        "ECCENTRICITY": 0.0012747,
        "ELEMENT_SET_NO": 999,
        "EPHEMERIS_TYPE": 0,
        "EPOCH": "2026-05-04T11:27:05.347008",
        "INCLINATION": 51.6275,
        "MEAN_ANOMALY": 324.2927,
        "MEAN_MOTION": 15.56312178,
        "MEAN_MOTION_DDOT": 0,
        "MEAN_MOTION_DOT": 0.00040009,
        "NORAD_CAT_ID": 67683,
        "OBJECT_ID": "1998-067XZ",
        "OBJECT_NAME": "KNACKSAT-2",
        "RA_OF_ASC_NODE": 153.6873,
        "REV_AT_EPOCH": 1346
    },
    {
        "ARG_OF_PERICENTER": 30.2839,
        "BSTAR": 0.00096588,
        "CLASSIFICATION_TYPE": "U",
        "ECCENTRICITY": 0.0016395,
        "ELEMENT_SET_NO": 999,
        "EPHEMERIS_TYPE": 0,
        "EPOCH": "2026-05-04T06:23:42.449856",
        "INCLINATION": 51.6247,
        "MEAN_ANOMALY": 329.91,
        "MEAN_MOTION": 15.64409918,
        "MEAN_MOTION_DDOT": 0,
        "MEAN_MOTION_DOT": 0.00095716,
        "NORAD_CAT_ID": 67684,
        "OBJECT_ID": "1998-067YA",
        "OBJECT_NAME": "CORAL",
        "RA_OF_ASC_NODE": 152.2724,
        "REV_AT_EPOCH": 1346
    },
    {
        "ARG_OF_PERICENTER": 33.4901,
        "BSTAR": 0.00056424,
        "CLASSIFICATION_TYPE": "U",
        "ECCENTRICITY": 0.0014695,
        "ELEMENT_SET_NO": 999,
        "EPHEMERIS_TYPE": 0,
        "EPOCH": "2026-05-04T10:47:43.328256",
        "INCLINATION": 51.6272,
        "MEAN_ANOMALY": 326.7017,
        "MEAN_MOTION": 15.57233971,
        "MEAN_MOTION_DDOT": 0,
        "MEAN_MOTION_DOT": 0.00041802,
        "NORAD_CAT_ID": 67685,
        "OBJECT_ID": "1998-067YB",
        "OBJECT_NAME": "GXIBA-1",
        "RA_OF_ASC_NODE": 153.5044,
        "REV_AT_EPOCH": 1346
    },
    {
        "ARG_OF_PERICENTER": 16.7038,
        "BSTAR": 0.00071982,
        "CLASSIFICATION_TYPE": "U",
        "ECCENTRICITY": 0.0011591,
        "ELEMENT_SET_NO": 999,
        "EPHEMERIS_TYPE": 0,
        "EPOCH": "2026-05-04T11:11:45.263904",
        "INCLINATION": 51.6269,
        "MEAN_ANOMALY": 343.4335,
        "MEAN_MOTION": 15.59069215,
        "MEAN_MOTION_DDOT": 0,
        "MEAN_MOTION_DOT": 0.0005733,
        "NORAD_CAT_ID": 67686,
        "OBJECT_ID": "1998-067YC",
        "OBJECT_NAME": "UITMSAT-2",
        "RA_OF_ASC_NODE": 152.8678,
        "REV_AT_EPOCH": 1347
    },
    {
        "ARG_OF_PERICENTER": 16.9541,
        "BSTAR": 0.00053805,
        "CLASSIFICATION_TYPE": "U",
        "ECCENTRICITY": 0.001093,
        "ELEMENT_SET_NO": 999,
        "EPHEMERIS_TYPE": 0,
        "EPOCH": "2026-05-04T09:32:58.379424",
        "INCLINATION": 51.6283,
        "MEAN_ANOMALY": 343.1813,
        "MEAN_MOTION": 15.56850048,
        "MEAN_MOTION_DDOT": 0,
        "MEAN_MOTION_DOT": 0.00039169,
        "NORAD_CAT_ID": 67687,
        "OBJECT_ID": "1998-067YD",
        "OBJECT_NAME": "HMU-SAT2",
        "RA_OF_ASC_NODE": 153.9131,
        "REV_AT_EPOCH": 1337
    },
    {
        "ARG_OF_PERICENTER": 15.7364,
        "BSTAR": 0.00061083,
        "CLASSIFICATION_TYPE": "U",
        "ECCENTRICITY": 0.001125,
        "ELEMENT_SET_NO": 999,
        "EPHEMERIS_TYPE": 0,
        "EPOCH": "2026-05-04T07:05:47.482080",
        "INCLINATION": 51.628,
        "MEAN_ANOMALY": 344.3976,
        "MEAN_MOTION": 15.58217003,
        "MEAN_MOTION_DDOT": 0,
        "MEAN_MOTION_DOT": 0.00046949,
        "NORAD_CAT_ID": 67688,
        "OBJECT_ID": "1998-067YE",
        "OBJECT_NAME": "LEOPARD",
        "RA_OF_ASC_NODE": 153.9805,
        "REV_AT_EPOCH": 1336
    },
    {
        "ARG_OF_PERICENTER": 22.3552,
        "BSTAR": 0.00011872,
        "CLASSIFICATION_TYPE": "U",
        "ECCENTRICITY": 0.0007325,
        "ELEMENT_SET_NO": 999,
        "EPHEMERIS_TYPE": 0,
        "EPOCH": "2026-05-04T10:59:11.424768",
        "INCLINATION": 51.6305,
        "MEAN_ANOMALY": 337.7754,
        "MEAN_MOTION": 15.49089675,
        "MEAN_MOTION_DDOT": 0,
        "MEAN_MOTION_DOT": 6.118e-05,
        "NORAD_CAT_ID": 67796,
        "OBJECT_ID": "2026-031A",
        "OBJECT_NAME": "CREW DRAGON 12",
        "RA_OF_ASC_NODE": 156.557,
        "REV_AT_EPOCH": 56523
    },
    {
        "ARG_OF_PERICENTER": 22.3552,
        "BSTAR": 0.00011872,
        "CLASSIFICATION_TYPE": "U",
        "ECCENTRICITY": 0.0007325,
        "ELEMENT_SET_NO": 999,
        "EPHEMERIS_TYPE": 0,
        "EPOCH": "2026-05-04T10:59:11.424768",
        "INCLINATION": 51.6305,
        "MEAN_ANOMALY": 337.7754,
        "MEAN_MOTION": 15.49089675,
        "MEAN_MOTION_DDOT": 0,
        "MEAN_MOTION_DOT": 6.118e-05,
        "NORAD_CAT_ID": 68319,
        "OBJECT_ID": "2026-058A",
        "OBJECT_NAME": "PROGRESS-MS 33",
        "RA_OF_ASC_NODE": 156.557,
        "REV_AT_EPOCH": 674
    }